[{"OBJECT_NAME":"STARLINK-2487","OBJECT_ID":"2021-027BE","EPOCH":"2026-03-10T00:00:02.999808","MEAN_MOTION":15.1061942,"ECCENTRICITY":0.00021427,"INCLINATION":53.0713,"RA_OF_ASC_NODE":150.193,"ARG_OF_PERICENTER":82.213,"MEAN_ANOMALY":69.5138,"EPHEMERIS_TYPE":0,"CLASSIFICATION_TYPE":"U","NORAD_CAT_ID":48144,"ELEMENT_SET_NO":999,"REV_AT_EPOCH":574,"BSTAR":0.083657273,"MEAN_MOTION_DOT":0.01515342,"MEAN_MOTION_DDOT":0},{"OBJECT_NAME":"KHAYYAM","OBJECT_ID":"2022-096A","EPOCH":"2026-03-09T23:16:46.350624","MEAN_MOTION":15.24771015,"ECCENTRICITY":0.00024081,"INCLINATION":97.351,"RA_OF_ASC_NODE":334.9969,"ARG_OF_PERICENTER":70.558,"MEAN_ANOMALY":289.5917,"EPHEMERIS_TYPE":0,"CLASSIFICATION_TYPE":"U","NORAD_CAT_ID":53370,"ELEMENT_SET_NO":999,"REV_AT_EPOCH":19946,"BSTAR":0.00026923471,"MEAN_MOTION_DOT":6.603e-5,"MEAN_MOTION_DDOT":0}]
